[{"OBJECT_NAME":"STARLINK-35914","OBJECT_ID":"2025-265S","EPOCH":"2026-03-09T23:09:11.309472","MEAN_MOTION":15.27607114,"ECCENTRICITY":0.00016422,"INCLINATION":43.0037,"RA_OF_ASC_NODE":276.5397,"ARG_OF_PERICENTER":234.5812,"MEAN_ANOMALY":125.4886,"EPHEMERIS_TYPE":0,"CLASSIFICATION_TYPE":"U","NORAD_CAT_ID":66532,"ELEMENT_SET_NO":999,"REV_AT_EPOCH":1715,"BSTAR":0.0011944838,"MEAN_MOTION_DOT":0.00032781,"MEAN_MOTION_DDOT":0},{"OBJECT_NAME":"CZ-6A DEB","OBJECT_ID":"2024-140AAN","EPOCH":"2026-03-09T15:08:07.195776","MEAN_MOTION":15.20547394,"ECCENTRICITY":0.0064261,"INCLINATION":89.3669,"RA_OF_ASC_NODE":306.3092,"ARG_OF_PERICENTER":93.6352,"MEAN_ANOMALY":267.2246,"EPHEMERIS_TYPE":0,"CLASSIFICATION_TYPE":"U","NORAD_CAT_ID":61480,"ELEMENT_SET_NO":999,"REV_AT_EPOCH":8198,"BSTAR":0.0033609,"MEAN_MOTION_DOT":0.00078405,"MEAN_MOTION_DDOT":0}]
